{"type":"FeatureCollection","features":[{"type":"Feature","properties":{"mode":"bus","n":6,"arr":["601","602","609","610","901","902"],"lines":"601, 602, 609, 610, 901, 902"},"geometry":{"type":"LineString","coordinates":[[21.785925,38.286147],[21.78739,38.286926],[21.787405,38.286937],[21.787412,38.286948],[21.787411,38.286961],[21.787402,38.286976],[21.784839,38.289934],[21.784599,38.290241],[21.784588,38.290265],[21.784591,38.29029],[21.78461,38.290339]]}},{"type":"Feature","properties":{"mode":"bus","n":5,"arr":["101","102","103","104","303"],"lines":"101, 102, 103, 104, 303"},"geometry":{"type":"LineString","coordinates":[[21.748215,38.269011],[21.747602,38.269167],[21.747235,38.269312],[21.746756,38.269637],[21.745988,38.270017],[21.745613,38.270304],[21.744707,38.2709],[21.743162,38.271847],[21.742228,38.272341],[21.741463,38.272695],[21.741448,38.272705],[21.74144,38.272716],[21.74144,38.272729],[21.741449,38.272743],[21.741765,38.273136],[21.742675,38.273911],[21.743034,38.274272],[21.744026,38.275712],[21.744903,38.27678],[21.745102,38.276973],[21.745217,38.277325],[21.745254,38.277586],[21.745371,38.279217],[21.745468,38.280057],[21.745551,38.280472],[21.745633,38.280646],[21.74594,38.281138],[21.74627,38.281568],[21.746415,38.281697],[21.746726,38.281873],[21.74707,38.281986],[21.747426,38.282052],[21.747642,38.282039],[21.7479,38.281981],[21.748849,38.281686],[21.750434,38.281116],[21.750919,38.280967],[21.751607,38.280807],[21.751888,38.280768],[21.75304,38.280687]]}},{"type":"Feature","properties":{"mode":"bus","n":7,"arr":["101","102","103","104","303","901","902"],"lines":"101, 102, 103, 104, 303, 901, 902"},"geometry":{"type":"LineString","coordinates":[[21.744292,38.26352],[21.744897,38.263991],[21.745691,38.264552],[21.746163,38.264937],[21.746306,38.265124],[21.746664,38.265837],[21.746831,38.266108],[21.74711,38.266397],[21.747793,38.266859],[21.748021,38.267075],[21.748371,38.267555],[21.748766,38.268194],[21.749166,38.268708]]}},{"type":"Feature","properties":{"mode":"bus","n":6,"arr":["101","102","103","104","901","902"],"lines":"101, 102, 103, 104, 901, 902"},"geometry":{"type":"LineString","coordinates":[[21.741478,38.257115],[21.742868,38.260495],[21.743112,38.26104],[21.74355,38.261893],[21.743681,38.262592],[21.743848,38.263133],[21.743923,38.26323],[21.744292,38.26352]]}},{"type":"Feature","properties":{"mode":"bus","n":9,"arr":["101","102","103","104","606","609","610","901","902"],"lines":"101, 102, 103, 104, 606, 609, 610, 901, 902"},"geometry":{"type":"LineString","coordinates":[[21.74026,38.254208],[21.741478,38.257115]]}},{"type":"Feature","properties":{"mode":"bus","n":7,"arr":["101","102","103","606","609","610","902"],"lines":"101, 102, 103, 606, 609, 610, 902"},"geometry":{"type":"LineString","coordinates":[[21.740208,38.253449],[21.74026,38.254208]]}},{"type":"Feature","properties":{"mode":"bus","n":6,"arr":["101","102","103","609","610","902"],"lines":"101, 102, 103, 609, 610, 902"},"geometry":{"type":"LineString","coordinates":[[21.740209,38.253278],[21.740208,38.253449]]}},{"type":"Feature","properties":{"mode":"bus","n":5,"arr":["101","102","201","301","302"],"lines":"101, 102, 201, 301, 302"},"geometry":{"type":"LineString","coordinates":[[21.740385,38.250809],[21.741197,38.251448],[21.741262,38.251562]]}},{"type":"Feature","properties":{"mode":"bus","n":5,"arr":["101","102","201","301","302"],"lines":"101, 102, 201, 301, 302"},"geometry":{"type":"LineString","coordinates":[[21.738947,38.24874],[21.739552,38.248259],[21.739564,38.248246],[21.739568,38.248233],[21.739564,38.24822],[21.739551,38.248208],[21.738675,38.247528]]}},{"type":"Feature","properties":{"mode":"bus","n":6,"arr":["101","102","103","201","301","302"],"lines":"101, 102, 103, 201, 301, 302"},"geometry":{"type":"LineString","coordinates":[[21.738947,38.24874],[21.738367,38.249199],[21.738355,38.249212],[21.738351,38.249225],[21.738355,38.249238],[21.738368,38.24925],[21.740385,38.250809]]}},{"type":"Feature","properties":{"mode":"bus","n":6,"arr":["101","102","103","201","301","302"],"lines":"101, 102, 103, 201, 301, 302"},"geometry":{"type":"LineString","coordinates":[[21.736814,38.246109],[21.73764,38.246742]]}},{"type":"Feature","properties":{"mode":"bus","n":7,"arr":["101","102","103","201","301","302","401"],"lines":"101, 102, 103, 201, 301, 302, 401"},"geometry":{"type":"LineString","coordinates":[[21.73764,38.246742],[21.738675,38.247528]]}},{"type":"Feature","properties":{"mode":"bus","n":9,"arr":["101","102","103","201","301","302","702","801","803"],"lines":"101, 102, 103, 201, 301, 302, 702, 801, 803"},"geometry":{"type":"LineString","coordinates":[[21.734368,38.244222],[21.736814,38.246109]]}},{"type":"Feature","properties":{"mode":"bus","n":10,"arr":["101","102","103","201","301","302","701","702","801","803"],"lines":"101, 102, 103, 201, 301, 302, 701, 702, 801, 803"},"geometry":{"type":"LineString","coordinates":[[21.73345,38.243519],[21.734368,38.244222]]}},{"type":"Feature","properties":{"mode":"bus","n":6,"arr":["606","607","608","609","801","803"],"lines":"606, 607, 608, 609, 801, 803"},"geometry":{"type":"LineString","coordinates":[[21.733816,38.248538],[21.735528,38.247153]]}},{"type":"Feature","properties":{"mode":"bus","n":6,"arr":["606","607","608","609","801","803"],"lines":"606, 607, 608, 609, 801, 803"},"geometry":{"type":"LineString","coordinates":[[21.735597,38.247097],[21.736138,38.246658]]}},{"type":"Feature","properties":{"mode":"bus","n":7,"arr":["101","606","607","608","609","801","803"],"lines":"101, 606, 607, 608, 609, 801, 803"},"geometry":{"type":"LineString","coordinates":[[21.735528,38.247153],[21.735597,38.247097]]}},{"type":"Feature","properties":{"mode":"bus","n":6,"arr":["601","606","607","608","801","803"],"lines":"601, 606, 607, 608, 801, 803"},"geometry":{"type":"LineString","coordinates":[[21.736138,38.246658],[21.736201,38.246606]]}},{"type":"Feature","properties":{"mode":"bus","n":5,"arr":["303","701","702","801","803"],"lines":"303, 701, 702, 801, 803"},"geometry":{"type":"LineString","coordinates":[[21.736814,38.246109],[21.736201,38.246606]]}},{"type":"Feature","properties":{"mode":"bus","n":6,"arr":["101","202","303","602","701","804"],"lines":"101, 202, 303, 602, 701, 804"},"geometry":{"type":"LineString","coordinates":[[21.732864,38.244017],[21.733776,38.244722]]}},{"type":"Feature","properties":{"mode":"bus","n":5,"arr":["202","303","602","701","804"],"lines":"202, 303, 602, 701, 804"},"geometry":{"type":"LineString","coordinates":[[21.733776,38.244722],[21.735109,38.245744],[21.735204,38.245757],[21.735246,38.245756],[21.735283,38.24574],[21.735347,38.245698],[21.735416,38.245687],[21.735451,38.245687],[21.735481,38.245701],[21.735781,38.245908],[21.735811,38.24598],[21.735727,38.246167],[21.73574,38.246235],[21.736201,38.246606]]}},{"type":"Feature","properties":{"mode":"bus","n":9,"arr":["101","102","103","104","701","702","801","803","804"],"lines":"101, 102, 103, 104, 701, 702, 801, 803, 804"},"geometry":{"type":"LineString","coordinates":[[21.74356,38.238961],[21.742332,38.239614],[21.741907,38.239805],[21.734465,38.242683],[21.73345,38.243519]]}},{"type":"Feature","properties":{"mode":"bus","n":6,"arr":["101","102","103","104","401","402"],"lines":"101, 102, 103, 104, 401, 402"},"geometry":{"type":"LineString","coordinates":[[21.746198,38.240365],[21.745397,38.240214]]}},{"type":"Feature","properties":{"mode":"bus","n":8,"arr":["202","303","601","602","606","607","608","804"],"lines":"202, 303, 601, 602, 606, 607, 608, 804"},"geometry":{"type":"LineString","coordinates":[[21.736201,38.246606],[21.73805,38.248039]]}},{"type":"Feature","properties":{"mode":"bus","n":9,"arr":["103","202","302","303","601","602","606","607","608"],"lines":"103, 202, 302, 303, 601, 602, 606, 607, 608"},"geometry":{"type":"LineString","coordinates":[[21.73805,38.248039],[21.738947,38.24874]]}},{"type":"Feature","properties":{"mode":"bus","n":6,"arr":["104","701","702","801","803","804"],"lines":"104, 701, 702, 801, 803, 804"},"geometry":{"type":"LineString","coordinates":[[21.744593,38.238372],[21.74356,38.238961]]}},{"type":"Feature","properties":{"mode":"bus","n":5,"arr":["104","111","118","502","503"],"lines":"104, 111, 118, 502, 503"},"geometry":{"type":"LineString","coordinates":[[21.73343,38.247623],[21.736033,38.249689]]}},{"type":"Feature","properties":{"mode":"bus","n":6,"arr":["104","111","118","502","503","804"],"lines":"104, 111, 118, 502, 503, 804"},"geometry":{"type":"LineString","coordinates":[[21.736033,38.249689],[21.737464,38.250825]]}},{"type":"Feature","properties":{"mode":"bus","n":5,"arr":["104","111","502","503","804"],"lines":"104, 111, 502, 503, 804"},"geometry":{"type":"LineString","coordinates":[[21.737464,38.250825],[21.737536,38.250886]]}},{"type":"Feature","properties":{"mode":"bus","n":6,"arr":["104","111","502","503","804","901"],"lines":"104, 111, 502, 503, 804, 901"},"geometry":{"type":"LineString","coordinates":[[21.737536,38.250886],[21.737881,38.25162],[21.738342,38.253296]]}},{"type":"Feature","properties":{"mode":"bus","n":10,"arr":["111","501","502","606","607","608","609","610","801","803"],"lines":"111, 501, 502, 606, 607, 608, 609, 610, 801, 803"},"geometry":{"type":"LineString","coordinates":[[21.735536,38.249877],[21.734593,38.249168],[21.733816,38.248538]]}},{"type":"Feature","properties":{"mode":"bus","n":7,"arr":["201","202","303","601","606","607","608"],"lines":"201, 202, 303, 601, 606, 607, 608"},"geometry":{"type":"LineString","coordinates":[[21.748512,38.257818],[21.748816,38.257994],[21.749341,38.258224],[21.750236,38.258547],[21.750597,38.258773],[21.750921,38.259111],[21.751548,38.260092],[21.752026,38.260517],[21.752159,38.260679]]}},{"type":"Feature","properties":{"mode":"bus","n":7,"arr":["201","202","601","606","607","608","609"],"lines":"201, 202, 601, 606, 607, 608, 609"},"geometry":{"type":"LineString","coordinates":[[21.752159,38.260679],[21.752395,38.260957],[21.752662,38.261166],[21.752789,38.261235],[21.753178,38.261308],[21.753712,38.261325],[21.753832,38.26136],[21.753921,38.261432],[21.754029,38.261576],[21.754188,38.261893],[21.754227,38.262135],[21.754158,38.262795],[21.753917,38.263434],[21.753914,38.263647],[21.753984,38.263829],[21.754138,38.264012],[21.754561,38.264376],[21.755075,38.264867],[21.755748,38.265656],[21.755924,38.265765],[21.75658,38.266009]]}},{"type":"Feature","properties":{"mode":"bus","n":5,"arr":["201","601","606","608","609"],"lines":"201, 601, 606, 608, 609"},"geometry":{"type":"LineString","coordinates":[[21.75658,38.266009],[21.756896,38.266154],[21.757154,38.266371]]}},{"type":"Feature","properties":{"mode":"bus","n":5,"arr":["201","303","606","609","610"],"lines":"201, 303, 606, 609, 610"},"geometry":{"type":"LineString","coordinates":[[21.746599,38.25607],[21.747589,38.256618],[21.747789,38.256771],[21.747863,38.256908],[21.747936,38.257178],[21.747973,38.257426],[21.747971,38.257645]]}},{"type":"Feature","properties":{"mode":"bus","n":6,"arr":["201","301","302","606","609","610"],"lines":"201, 301, 302, 606, 609, 610"},"geometry":{"type":"LineString","coordinates":[[21.743296,38.256645],[21.744982,38.256216]]}},{"type":"Feature","properties":{"mode":"bus","n":5,"arr":["201","202","801","803","804"],"lines":"201, 202, 801, 803, 804"},"geometry":{"type":"LineString","coordinates":[[21.741508,38.229668],[21.74312,38.231127],[21.744817,38.232998],[21.745638,38.233804],[21.746228,38.234423],[21.746491,38.23464],[21.746653,38.234736]]}},{"type":"Feature","properties":{"mode":"bus","n":5,"arr":["201","202","801","803","804"],"lines":"201, 202, 801, 803, 804"},"geometry":{"type":"LineString","coordinates":[[21.740914,38.228563],[21.741024,38.22888]]}},{"type":"Feature","properties":{"mode":"bus","n":5,"arr":["201","202","503","801","803"],"lines":"201, 202, 503, 801, 803"},"geometry":{"type":"LineString","coordinates":[[21.740684,38.228016],[21.740902,38.228003],[21.741314,38.227935],[21.741698,38.22782]]}},{"type":"Feature","properties":{"mode":"bus","n":6,"arr":["201","202","503","801","803","804"],"lines":"201, 202, 503, 801, 803, 804"},"geometry":{"type":"LineString","coordinates":[[21.741491,38.219865],[21.741654,38.220499],[21.742232,38.222074],[21.742486,38.22284],[21.742552,38.223262],[21.742657,38.224438],[21.742609,38.22473],[21.741954,38.227514],[21.741898,38.227641],[21.741698,38.22782]]}},{"type":"Feature","properties":{"mode":"bus","n":7,"arr":["202","303","601","602","606","607","608"],"lines":"202, 303, 601, 602, 606, 607, 608"},"geometry":{"type":"LineString","coordinates":[[21.738947,38.24874],[21.743337,38.25214],[21.744554,38.253521],[21.746368,38.25572],[21.74646,38.255768],[21.74661,38.255777],[21.746701,38.255745],[21.746955,38.255585],[21.747078,38.25555],[21.747247,38.255563],[21.74737,38.255637],[21.747479,38.255786],[21.747609,38.256111],[21.74796,38.256773],[21.748102,38.257172],[21.748139,38.257516]]}},{"type":"Feature","properties":{"mode":"bus","n":5,"arr":["202","303","601","606","607"],"lines":"202, 303, 601, 606, 607"},"geometry":{"type":"LineString","coordinates":[[21.748512,38.257818],[21.748291,38.257677],[21.748139,38.257516]]}},{"type":"Feature","properties":{"mode":"bus","n":5,"arr":["202","301","302","303","503"],"lines":"202, 301, 302, 303, 503"},"geometry":{"type":"LineString","coordinates":[[21.730841,38.223592],[21.731033,38.223587],[21.731054,38.223589],[21.731072,38.223599],[21.731102,38.223624],[21.731115,38.224276],[21.731318,38.225126],[21.731399,38.225397],[21.731691,38.225989],[21.731854,38.226216],[21.732277,38.226559],[21.732469,38.226656],[21.732961,38.226783],[21.733151,38.226899],[21.733733,38.227871],[21.733859,38.228463]]}},{"type":"Feature","properties":{"mode":"bus","n":5,"arr":["202","301","302","303","503"],"lines":"202, 301, 302, 303, 503"},"geometry":{"type":"LineString","coordinates":[[21.737166,38.220767],[21.735888,38.221093],[21.734877,38.221296],[21.734599,38.221447],[21.73397,38.221922],[21.732755,38.222307],[21.732609,38.222336],[21.732352,38.222346],[21.731259,38.222264],[21.730498,38.222371],[21.730374,38.222421]]}},{"type":"Feature","properties":{"mode":"bus","n":5,"arr":["202","301","302","303","503"],"lines":"202, 301, 302, 303, 503"},"geometry":{"type":"LineString","coordinates":[[21.737001,38.218629],[21.73723,38.219267]]}},{"type":"Feature","properties":{"mode":"bus","n":5,"arr":["601","606","608","609","902"],"lines":"601, 606, 608, 609, 902"},"geometry":{"type":"LineString","coordinates":[[21.765043,38.277235],[21.766546,38.278682],[21.767258,38.279172],[21.768236,38.280028],[21.769184,38.28069]]}},{"type":"Feature","properties":{"mode":"bus","n":6,"arr":["601","602","608","609","901","902"],"lines":"601, 602, 608, 609, 901, 902"},"geometry":{"type":"LineString","coordinates":[[21.769184,38.28069],[21.770651,38.281693]]}},{"type":"Feature","properties":{"mode":"bus","n":5,"arr":["701","702","801","803","804"],"lines":"701, 702, 801, 803, 804"},"geometry":{"type":"LineString","coordinates":[[21.745111,38.23806],[21.744593,38.238372]]}}]}